{
  "type": "FeatureCollection",
  "features": [
    {
      "type": "Feature",
      "properties": {
        "norad_id": 33412,
        "name": "COSMO-SKYMED 3",
        "group": "resource",
        "lat": -7.37289061670293,
        "lon": 14.719897710935767,
        "alt_km": 543.5852214130527,
        "timestamp": "2025-12-11T08:58:26.770866+00:00",
        "meta_object_name": "COSMO-SKYMED 3",
        "meta_object_id": "2008-054A",
        "meta_epoch": "2025-12-11T03:21:31.285152",
        "meta_mean_motion": 15.05329975,
        "meta_eccentricity": 0.0015851,
        "meta_inclination": 97.8461,
        "meta_ra_of_asc_node": 195.5045,
        "meta_arg_of_pericenter": 179.4936,
        "meta_mean_anomaly": 180.6309,
        "meta_ephemeris_type": 0,
        "meta_classification_type": "U",
        "meta_norad_cat_id": 33412,
        "meta_element_set_no": 999,
        "meta_rev_at_epoch": 92863,
        "meta_bstar": 0.0005758,
        "meta_mean_motion_dot": 8.205e-05,
        "meta_mean_motion_ddot": 0,
        "tle_line1": "1 33412U 08054A   25345.13994543  .00008205  00000+0  57580-3 0  9999",
        "tle_line2": "2 33412  97.8461 195.5045 0015851 179.4936 180.6309 15.05329975928639"
      },
      "geometry": {
        "type": "Point",
        "coordinates": [
          14.719897710935767,
          -7.37289061670293
        ]
      }
    },
    {
      "type": "Feature",
      "properties": {
        "norad_id": 33446,
        "name": "YAOGAN-4",
        "group": "resource",
        "lat": -77.46508575407856,
        "lon": -45.76028609135566,
        "alt_km": 621.8394862915729,
        "timestamp": "2025-12-11T08:58:26.770876+00:00",
        "meta_object_name": "YAOGAN-4",
        "meta_object_id": "2008-061A",
        "meta_epoch": "2025-12-10T18:45:27.285984",
        "meta_mean_motion": 14.82672885,
        "meta_eccentricity": 0.00137394,
        "meta_inclination": 97.9179,
        "meta_ra_of_asc_node": 274.9001,
        "meta_arg_of_pericenter": 330.1294,
        "meta_mean_anomaly": 29.9134,
        "meta_ephemeris_type": 0,
        "meta_classification_type": "U",
        "meta_norad_cat_id": 33446,
        "meta_element_set_no": 999,
        "meta_rev_at_epoch": 91774,
        "meta_bstar": 0.00030466827,
        "meta_mean_motion_dot": 2.407e-05,
        "meta_mean_motion_ddot": 0,
        "tle_line1": "1 33446U 08061A   25344.78156581  .00002407  00000+0  30467-3 0  9999",
        "tle_line2": "2 33446  97.9179 274.9001 0013739 330.1294  29.9134 14.82672885917749"
      },
      "geometry": {
        "type": "Point",
        "coordinates": [
          -45.76028609135566,
          -77.46508575407856
        ]
      }
    },
    {
      "type": "Feature",
      "properties": {
        "norad_id": 33492,
        "name": "GOSAT (IBUKI)",
        "group": "resource",
        "lat": 45.51210556436777,
        "lon": 85.68411497408465,
        "alt_km": 664.494047878411,
        "timestamp": "2025-12-11T08:58:26.770888+00:00",
        "meta_object_name": "GOSAT (IBUKI)",
        "meta_object_id": "2009-002A",
        "meta_epoch": "2025-12-11T05:29:31.382016",
        "meta_mean_motion": 14.67550218,
        "meta_eccentricity": 9.39e-05,
        "meta_inclination": 98.0768,
        "meta_ra_of_asc_node": 93.8531,
        "meta_arg_of_pericenter": 90.3208,
        "meta_mean_anomaly": 269.8105,
        "meta_ephemeris_type": 0,
        "meta_classification_type": "U",
        "meta_norad_cat_id": 33492,
        "meta_element_set_no": 999,
        "meta_rev_at_epoch": 90389,
        "meta_bstar": 0.00025492,
        "meta_mean_motion_dot": 1.398e-05,
        "meta_mean_motion_ddot": 0,
        "tle_line1": "1 33492U 09002A   25345.22883544  .00001398  00000+0  25492-3 0  9992",
        "tle_line2": "2 33492  98.0768  93.8531 0000939  90.3208 269.8105 14.67550218903892"
      },
      "geometry": {
        "type": "Point",
        "coordinates": [
          85.68411497408465,
          45.51210556436777
        ]
      }
    },
    {
      "type": "Feature",
      "properties": {
        "norad_id": 35681,
        "name": "DEIMOS-1",
        "group": "resource",
        "lat": 81.93868953156391,
        "lon": 72.87252085139093,
        "alt_km": 635.9335474556829,
        "timestamp": "2025-12-11T08:58:26.770899+00:00",
        "meta_object_name": "DEIMOS-1",
        "meta_object_id": "2009-041A",
        "meta_epoch": "2025-12-11T05:19:18.972768",
        "meta_mean_motion": 14.7494851,
        "meta_eccentricity": 0.0002755,
        "meta_inclination": 97.7151,
        "meta_ra_of_asc_node": 145.8956,
        "meta_arg_of_pericenter": 81.8144,
        "meta_mean_anomaly": 278.3378,
        "meta_ephemeris_type": 0,
        "meta_classification_type": "U",
        "meta_norad_cat_id": 35681,
        "meta_element_set_no": 999,
        "meta_rev_at_epoch": 87917,
        "meta_bstar": 0.00017264,
        "meta_mean_motion_dot": 1.113e-05,
        "meta_mean_motion_ddot": 0,
        "tle_line1": "1 35681U 09041A   25345.22174737  .00001113  00000+0  17264-3 0  9997",
        "tle_line2": "2 35681  97.7151 145.8956 0002755  81.8144 278.3378 14.74948510879171"
      },
      "geometry": {
        "type": "Point",
        "coordinates": [
          72.87252085139093,
          81.93868953156391
        ]
      }
    },
    {
      "type": "Feature",
      "properties": {
        "norad_id": 35682,
        "name": "DUBAISAT-1",
        "group": "resource",
        "lat": 23.973891514973207,
        "lon": 112.4978602647009,
        "alt_km": 643.000828935039,
        "timestamp": "2025-12-11T08:58:26.770911+00:00",
        "meta_object_name": "DUBAISAT-1",
        "meta_object_id": "2009-041B",
        "meta_epoch": "2025-12-11T02:21:01.918368",
        "meta_mean_motion": 14.74596728,
        "meta_eccentricity": 0.000965,
        "meta_inclination": 97.9788,
        "meta_ra_of_asc_node": 115.8019,
        "meta_arg_of_pericenter": 320.3232,
        "meta_mean_anomaly": 39.7269,
        "meta_ephemeris_type": 0,
        "meta_classification_type": "U",
        "meta_norad_cat_id": 35682,
        "meta_element_set_no": 999,
        "meta_rev_at_epoch": 87737,
        "meta_bstar": 0.0003371,
        "meta_mean_motion_dot": 2.198e-05,
        "meta_mean_motion_ddot": 0,
        "tle_line1": "1 35682U 09041B   25345.09793887  .00002198  00000+0  33710-3 0  9994",
        "tle_line2": "2 35682  97.9788 115.8019 0009650 320.3232  39.7269 14.74596728877375"
      },
      "geometry": {
        "type": "Point",
        "coordinates": [
          112.4978602647009,
          23.973891514973207
        ]
      }
    },
    {
      "type": "Feature",
      "properties": {
        "norad_id": 35931,
        "name": "OCEANSAT-2",
        "group": "resource",
        "lat": -29.7373153584395,
        "lon": 161.37514406455523,
        "alt_km": 912.1741473940265,
        "timestamp": "2025-12-11T08:58:26.770922+00:00",
        "meta_object_name": "OCEANSAT-2",
        "meta_object_id": "2009-051A",
        "meta_epoch": "2025-12-11T04:32:36.612096",
        "meta_mean_motion": 13.9962497,
        "meta_eccentricity": 0.0016265,
        "meta_inclination": 98.2224,
        "meta_ra_of_asc_node": 345.9472,
        "meta_arg_of_pericenter": 49.1237,
        "meta_mean_anomaly": 311.1336,
        "meta_ephemeris_type": 0,
        "meta_classification_type": "U",
        "meta_norad_cat_id": 35931,
        "meta_element_set_no": 999,
        "meta_rev_at_epoch": 85303,
        "meta_bstar": -7.7711e-05,
        "meta_mean_motion_dot": -1.51e-06,
        "meta_mean_motion_ddot": 0,
        "tle_line1": "1 35931U 09051A   25345.18931264 -.00000151  00000+0 -77711-4 0  9994",
        "tle_line2": "2 35931  98.2224 345.9472 0016265  49.1237 311.1336 13.99624970853037"
      },
      "geometry": {
        "type": "Point",
        "coordinates": [
          161.37514406455523,
          -29.7373153584395
        ]
      }
    },
    {
      "type": "Feature",
      "properties": {
        "norad_id": 35946,
        "name": "WORLDVIEW-2 (WV-2)",
        "group": "resource",
        "lat": 35.20573097307912,
        "lon": -117.48346205955802,
        "alt_km": 762.8362409679421,
        "timestamp": "2025-12-11T08:58:26.770933+00:00",
        "meta_object_name": "WORLDVIEW-2 (WV-2)",
        "meta_object_id": "2009-055A",
        "meta_epoch": "2025-12-11T04:57:54.584064",
        "meta_mean_motion": 14.37651686,
        "meta_eccentricity": 0.0005317,
        "meta_inclination": 98.4762,
        "meta_ra_of_asc_node": 56.3122,
        "meta_arg_of_pericenter": 70.637,
        "meta_mean_anomaly": 289.5392,
        "meta_ephemeris_type": 0,
        "meta_classification_type": "U",
        "meta_norad_cat_id": 35946,
        "meta_element_set_no": 999,
        "meta_rev_at_epoch": 84863,
        "meta_bstar": 0.0001077,
        "meta_mean_motion_dot": 2.8e-06,
        "meta_mean_motion_ddot": 0,
        "tle_line1": "1 35946U 09055A   25345.20688176  .00000280  00000+0  10770-3 0  9990",
        "tle_line2": "2 35946  98.4762  56.3122 0005317  70.6370 289.5392 14.37651686848637"
      },
      "geometry": {
        "type": "Point",
        "coordinates": [
          -117.48346205955802,
          35.20573097307912
        ]
      }
    }
  ]
}